{
  "type": "FeatureCollection",
  "features": [
    {
      "type": "Feature",
      "properties": {
        "norad_id": 43823,
        "name": "GEO-KOMPSAT-2A",
        "group": "weather",
        "lat": 0.0009638398362190259,
        "lon": -63.824604053984956,
        "alt_km": 35787.286868894924,
        "timestamp": "2025-12-13T05:42:57.139760+00:00",
        "meta_object_name": "GEO-KOMPSAT-2A",
        "meta_object_id": "2018-100A",
        "meta_epoch": "2025-12-12T00:23:29.579712",
        "meta_mean_motion": 1.00274151,
        "meta_eccentricity": 4.238e-05,
        "meta_inclination": 0.043,
        "meta_ra_of_asc_node": 144.5078,
        "meta_arg_of_pericenter": 350.0499,
        "meta_mean_anomaly": 80.5448,
        "meta_ephemeris_type": 0,
        "meta_classification_type": "U",
        "meta_norad_cat_id": 43823,
        "meta_element_set_no": 999,
        "meta_rev_at_epoch": 2575,
        "meta_bstar": 0,
        "meta_mean_motion_dot": -3.34e-06,
        "meta_mean_motion_ddot": 0,
        "tle_line1": "1 43823U 18100A   25346.01631458 -.00000334  00000+0  00000+0 0  9997",
        "tle_line2": "2 43823   0.0430 144.5078 0000423 350.0499  80.5448  1.00274151 25756"
      },
      "geometry": {
        "type": "Point",
        "coordinates": [
          -63.824604053984956,
          0.0009638398362190259
        ]
      }
    },
    {
      "type": "Feature",
      "properties": {
        "norad_id": 44387,
        "name": "METEOR-M2 2",
        "group": "weather",
        "lat": 48.31092708900854,
        "lon": -43.157628598129484,
        "alt_km": 806.5945692861897,
        "timestamp": "2025-12-13T05:42:57.139775+00:00",
        "meta_object_name": "METEOR-M2 2",
        "meta_object_id": "2019-038A",
        "meta_epoch": "2025-12-12T05:52:55.668000",
        "meta_mean_motion": 14.24290477,
        "meta_eccentricity": 0.00012252,
        "meta_inclination": 98.8975,
        "meta_ra_of_asc_node": 325.9676,
        "meta_arg_of_pericenter": 148.1559,
        "meta_mean_anomaly": 211.9693,
        "meta_ephemeris_type": 0,
        "meta_classification_type": "U",
        "meta_norad_cat_id": 44387,
        "meta_element_set_no": 999,
        "meta_rev_at_epoch": 33468,
        "meta_bstar": 5.013485e-05,
        "meta_mean_motion_dot": 7e-07,
        "meta_mean_motion_ddot": 0,
        "tle_line1": "1 44387U 19038A   25346.24508875  .00000070  00000+0  50135-4 0  9990",
        "tle_line2": "2 44387  98.8975 325.9676 0001225 148.1559 211.9693 14.24290477334680"
      },
      "geometry": {
        "type": "Point",
        "coordinates": [
          -43.157628598129484,
          48.31092708900854
        ]
      }
    },
    {
      "type": "Feature",
      "properties": {
        "norad_id": 47719,
        "name": "ARKTIKA-M 1",
        "group": "weather",
        "lat": 60.76329287213515,
        "lon": 148.5148310592878,
        "alt_km": 37149.4262580103,
        "timestamp": "2025-12-13T05:42:57.139795+00:00",
        "meta_object_name": "ARKTIKA-M 1",
        "meta_object_id": "2021-016A",
        "meta_epoch": "2025-12-09T14:03:23.859648",
        "meta_mean_motion": 2.00631311,
        "meta_eccentricity": 0.7202538,
        "meta_inclination": 63.1769,
        "meta_ra_of_asc_node": 84.4506,
        "meta_arg_of_pericenter": 269.1116,
        "meta_mean_anomaly": 15.6235,
        "meta_ephemeris_type": 0,
        "meta_classification_type": "U",
        "meta_norad_cat_id": 47719,
        "meta_element_set_no": 999,
        "meta_rev_at_epoch": 3498,
        "meta_bstar": 0,
        "meta_mean_motion_dot": -6.1e-07,
        "meta_mean_motion_ddot": 0,
        "tle_line1": "1 47719U 21016A   25343.58569282 -.00000061  00000+0  00000+0 0  9996",
        "tle_line2": "2 47719  63.1769  84.4506 7202538 269.1116  15.6235  2.00631311 34985"
      },
      "geometry": {
        "type": "Point",
        "coordinates": [
          148.5148310592878,
          60.76329287213515
        ]
      }
    },
    {
      "type": "Feature",
      "properties": {
        "norad_id": 49008,
        "name": "FENGYUN 3E",
        "group": "weather",
        "lat": 0.4531384907444751,
        "lon": -12.316571363044256,
        "alt_km": 828.6289750477426,
        "timestamp": "2025-12-13T05:42:57.139812+00:00",
        "meta_object_name": "FENGYUN 3E",
        "meta_object_id": "2021-062A",
        "meta_epoch": "2025-12-12T07:43:39.565344",
        "meta_mean_motion": 14.19879887,
        "meta_eccentricity": 5.68e-05,
        "meta_inclination": 98.748,
        "meta_ra_of_asc_node": 346.8479,
        "meta_arg_of_pericenter": 270.8945,
        "meta_mean_anomaly": 89.2167,
        "meta_ephemeris_type": 0,
        "meta_classification_type": "U",
        "meta_norad_cat_id": 49008,
        "meta_element_set_no": 999,
        "meta_rev_at_epoch": 23006,
        "meta_bstar": 2.0320008e-05,
        "meta_mean_motion_dot": -1e-08,
        "meta_mean_motion_ddot": 0,
        "tle_line1": "1 49008U 21062A   25346.32198571 -.00000001  00000+0  20320-4 0  9990",
        "tle_line2": "2 49008  98.7480 346.8479 0000568 270.8945  89.2167 14.19879887230060"
      },
      "geometry": {
        "type": "Point",
        "coordinates": [
          -12.316571363044256,
          0.4531384907444751
        ]
      }
    },
    {
      "type": "Feature",
      "properties": {
        "norad_id": 51850,
        "name": "GOES 18",
        "group": "weather",
        "lat": 0.005402736162581309,
        "lon": 30.915538306304647,
        "alt_km": 35785.18806867303,
        "timestamp": "2025-12-13T05:42:57.139827+00:00",
        "meta_object_name": "GOES 18",
        "meta_object_id": "2022-021A",
        "meta_epoch": "2025-12-12T05:58:54.245280",
        "meta_mean_motion": 1.00272483,
        "meta_eccentricity": 6.83e-05,
        "meta_inclination": 0.0034,
        "meta_ra_of_asc_node": 50.7117,
        "meta_arg_of_pericenter": 262.3869,
        "meta_mean_anomaly": 80.8263,
        "meta_ephemeris_type": 0,
        "meta_classification_type": "U",
        "meta_norad_cat_id": 51850,
        "meta_element_set_no": 999,
        "meta_rev_at_epoch": 471,
        "meta_bstar": 0,
        "meta_mean_motion_dot": 1.06e-06,
        "meta_mean_motion_ddot": 0,
        "tle_line1": "1 51850U 22021A   25346.24923895  .00000106  00000+0  00000+0 0  9993",
        "tle_line2": "2 51850   0.0034  50.7117 0000683 262.3869  80.8263  1.00272483  4718"
      },
      "geometry": {
        "type": "Point",
        "coordinates": [
          30.915538306304647,
          0.005402736162581309
        ]
      }
    },
    {
      "type": "Feature",
      "properties": {
        "norad_id": 54234,
        "name": "NOAA 21 (JPSS-2)",
        "group": "weather",
        "lat": 6.135126928610553,
        "lon": -77.40811908547683,
        "alt_km": 827.6415013339765,
        "timestamp": "2025-12-13T05:42:57.139840+00:00",
        "meta_object_name": "NOAA 21 (JPSS-2)",
        "meta_object_id": "2022-150A",
        "meta_epoch": "2025-12-12T06:00:12.605760",
        "meta_mean_motion": 14.19524122,
        "meta_eccentricity": 0.0002238,
        "meta_inclination": 98.7461,
        "meta_ra_of_asc_node": 282.5645,
        "meta_arg_of_pericenter": 39.0881,
        "meta_mean_anomaly": 321.0456,
        "meta_ephemeris_type": 0,
        "meta_classification_type": "U",
        "meta_norad_cat_id": 54234,
        "meta_element_set_no": 999,
        "meta_rev_at_epoch": 16002,
        "meta_bstar": 0.0001024646,
        "meta_mean_motion_dot": 1.72e-06,
        "meta_mean_motion_ddot": 0,
        "tle_line1": "1 54234U 22150A   25346.25014590  .00000172  00000+0  10246-3 0  9999",
        "tle_line2": "2 54234  98.7461 282.5645 0002238  39.0881 321.0456 14.19524122160022"
      },
      "geometry": {
        "type": "Point",
        "coordinates": [
          -77.40811908547683,
          6.135126928610553
        ]
      }
    },
    {
      "type": "Feature",
      "properties": {
        "norad_id": 54743,
        "name": "METEOSAT-12 (MTG-I1)",
        "group": "weather",
        "lat": 0.39837805412661975,
        "lon": 167.6278170619674,
        "alt_km": 35787.16809352823,
        "timestamp": "2025-12-13T05:42:57.139858+00:00",
        "meta_object_name": "METEOSAT-12 (MTG-I1)",
        "meta_object_id": "2022-170C",
        "meta_epoch": "2025-12-12T04:55:00.365376",
        "meta_mean_motion": 1.00268869,
        "meta_eccentricity": 0.000175,
        "meta_inclination": 0.6863,
        "meta_ra_of_asc_node": 23.509,
        "meta_arg_of_pericenter": 236.9704,
        "meta_mean_anomaly": 254.1783,
        "meta_ephemeris_type": 0,
        "meta_classification_type": "U",
        "meta_norad_cat_id": 54743,
        "meta_element_set_no": 999,
        "meta_rev_at_epoch": 1110,
        "meta_bstar": 0,
        "meta_mean_motion_dot": 2e-08,
        "meta_mean_motion_ddot": 0,
        "tle_line1": "1 54743U 22170C   25346.20486534  .00000002  00000+0  00000+0 0  9997",
        "tle_line2": "2 54743   0.6863  23.5090 0001750 236.9704 254.1783  1.00268869 11104"
      },
      "geometry": {
        "type": "Point",
        "coordinates": [
          167.6278170619674,
          0.39837805412661975
        ]
      }
    }
  ]
}